{"Observation_id": "5738648", "Satellite": "44352  - ARMADILLO", "Station": "David Andrews", "Status": "Bad", "Status_Message": "-100", "Transmitter": "GFSK\n            19200", "Frequency": "437,522,700Hz", "Mode": null, "Metadata": null, "Downloads": {"audio": "https://archive.org/download/satnogs-observations-005730001-005740000/satnogs-observations-005738001-005739000.zip/satnogs_5738648_2022-04-05T17-47-12.ogg", "waterfall": "https://s3.eu-central-1.wasabisys.com/satnogs-network/data_obs/2022/4/5/17/5738648/waterfall_5738648_2022-04-05T17-47-12.png", "waterfall_hash_name": "/home/maple/CodeProjects/satnogs-cnn/satnogs-data/observations/waterfalls/67fd807ec5a800595bbd16e7ccee01e600ed9beff512b2649dd1ff5cc37c0d81", "waterfall_shape": [1542, 623]}, "Waterfall_Status": "Without Signal", "Polar_Plot": {"tle1": "1 44352U 19036P   22095.20927556  .00092026 -45954-5  71956-3 0  9994", "tle2": "2 44352  28.5254 277.9978 0196593 304.0576  54.1504 15.48676012153810", "timeframe-start": "2022-04-05T17:47:12+00:00", "timeframe-end": "2022-04-05T17:52:26+00:00", "groundstation-lat": "35.694", "groundstation-lon": "-84.27", "groundstation-alt": "350"}, "demods": []}